UNKNOWN                 
1 81599U          25342.86266301  .00000480  00000+0  95917-3 0  9995
2 81599  67.2957 289.3534 0244736  87.1848 306.7685 13.31432317584567
UNKNOWN                 
1 81605U          25343.38904231  .00004201  00000+0  17371-1 0  9993
2 81605  56.4355 223.0716 0172851 126.9912 234.6975 12.81482375185770
UNKNOWN                 
1 81614U          25340.53795765  .00016024  00000+0  10224+0 0  9991
2 81614 101.8170 336.5766 0341093 162.2756 199.0551 12.37043645537218
UNKNOWN                 
1 81615U          25347.93437452  .00002238  00000+0  81265-3 0  9998
2 81615  65.8286  59.3454 0771558 136.0921 230.4162 13.34099507583020
UNKNOWN                 
1 81617U          25348.45948682  .00000440  00000+0  28619-2 0  9996
2 81617 101.2575 162.8345 0040511 238.0361 121.6774 12.57535369553321
UNKNOWN                 
1 81624U          25348.20335805  .00008045  00000+0  12740-2 0  9991
2 81624  66.9767 162.8876 0071702 235.2860 124.1494 14.70975908639929
UNKNOWN                 
1 81640U          25347.65393065  .00000343  00000+0  37211-3 0  9993
2 81640  65.8246 130.0387 0975900  77.3458 293.4740 12.57225097510193
UNKNOWN                 
1 81652U          25348.18432083  .00001128  00000+0  13632-2 0  9991
2 81652 102.1473 236.9694 0367062 356.3230 157.4260 13.44378142578841
UNKNOWN                 
1 81667U          25348.38615073  .00002688  00000+0  72969-3 0  9992
2 81667  74.0413  33.4795 0017203 321.5959  38.3975 14.47984058456883
UNKNOWN                 
1 81674U          25346.34120477  .00001412  00000+0  84198-3 0  9994
2 81674  66.8238   5.2750 0032202 231.7823 143.0236 14.09914170613662
UNKNOWN                 
1 81683U          25348.12037927  .00004606  00000+0  10092-2 0  9998
2 81683  81.2165 293.9187 0022857 297.2049  62.6818 14.57404727636060
UNKNOWN                 
1 81693U          25347.43773904  .00000083  00000+0  84923-3 0  9994
2 81693 101.0876  48.7917 0370928  83.9430 280.3758 12.25915160967854
