CCSDS_OMM_VERS = 2.0
CREATION_DATE  = 
ORIGINATOR     = 

OBJECT_NAME    = UNKNOWN
OBJECT_ID      = 
CENTER_NAME    = EARTH
REF_FRAME      = TEME
TIME_SYSTEM    = UTC
MEAN_ELEMENT_THEORY = SGP/SGP4

EPOCH          = 2025-12-08T20:42:14.084064
MEAN_MOTION    = 13.31432317
ECCENTRICITY   = .0244736
INCLINATION    = 67.2957
RA_OF_ASC_NODE = 289.3534
ARG_OF_PERICENTER = 87.1848
MEAN_ANOMALY   = 306.7685

EPHEMERIS_TYPE = 0
CLASSIFICATION_TYPE = U
NORAD_CAT_ID   = 81599
ELEMENT_SET_NO = 999
REV_AT_EPOCH   = 58456
BSTAR          = .95917E-3
MEAN_MOTION_DOT = .48E-5
MEAN_MOTION_DDOT = 0

CCSDS_OMM_VERS = 2.0
CREATION_DATE  = 
ORIGINATOR     = 

OBJECT_NAME    = UNKNOWN
OBJECT_ID      = 
CENTER_NAME    = EARTH
REF_FRAME      = TEME
TIME_SYSTEM    = UTC
MEAN_ELEMENT_THEORY = SGP/SGP4

EPOCH          = 2025-12-09T09:20:13.255584
MEAN_MOTION    = 12.81482375
ECCENTRICITY   = .0172851
INCLINATION    = 56.4355
RA_OF_ASC_NODE = 223.0716
ARG_OF_PERICENTER = 126.9912
MEAN_ANOMALY   = 234.6975

EPHEMERIS_TYPE = 0
CLASSIFICATION_TYPE = U
NORAD_CAT_ID   = 81605
ELEMENT_SET_NO = 999
REV_AT_EPOCH   = 18577
BSTAR          = .17371E-1
MEAN_MOTION_DOT = .4201E-4
MEAN_MOTION_DDOT = 0

CCSDS_OMM_VERS = 2.0
CREATION_DATE  = 
ORIGINATOR     = 

OBJECT_NAME    = UNKNOWN
OBJECT_ID      = 
CENTER_NAME    = EARTH
REF_FRAME      = TEME
TIME_SYSTEM    = UTC
MEAN_ELEMENT_THEORY = SGP/SGP4

EPOCH          = 2025-12-06T12:54:39.540960
MEAN_MOTION    = 12.37043645
ECCENTRICITY   = .0341093
INCLINATION    = 101.8170
RA_OF_ASC_NODE = 336.5766
ARG_OF_PERICENTER = 162.2756
MEAN_ANOMALY   = 199.0551

EPHEMERIS_TYPE = 0
CLASSIFICATION_TYPE = U
NORAD_CAT_ID   = 81614
ELEMENT_SET_NO = 999
REV_AT_EPOCH   = 53721
BSTAR          = .10224E+0
MEAN_MOTION_DOT = .16024E-3
MEAN_MOTION_DDOT = 0

CCSDS_OMM_VERS = 2.0
CREATION_DATE  = 
ORIGINATOR     = 

OBJECT_NAME    = UNKNOWN
OBJECT_ID      = 
CENTER_NAME    = EARTH
REF_FRAME      = TEME
TIME_SYSTEM    = UTC
MEAN_ELEMENT_THEORY = SGP/SGP4

EPOCH          = 2025-12-13T22:25:29.958528
MEAN_MOTION    = 13.34099507
ECCENTRICITY   = .0771558
INCLINATION    = 65.8286
RA_OF_ASC_NODE = 59.3454
ARG_OF_PERICENTER = 136.0921
MEAN_ANOMALY   = 230.4162

EPHEMERIS_TYPE = 0
CLASSIFICATION_TYPE = U
NORAD_CAT_ID   = 81615
ELEMENT_SET_NO = 999
REV_AT_EPOCH   = 58302
BSTAR          = .81265E-3
MEAN_MOTION_DOT = .2238E-4
MEAN_MOTION_DDOT = 0

CCSDS_OMM_VERS = 2.0
CREATION_DATE  = 
ORIGINATOR     = 

OBJECT_NAME    = UNKNOWN
OBJECT_ID      = 
CENTER_NAME    = EARTH
REF_FRAME      = TEME
TIME_SYSTEM    = UTC
MEAN_ELEMENT_THEORY = SGP/SGP4

EPOCH          = 2025-12-14T11:01:39.661248
MEAN_MOTION    = 12.57535369
ECCENTRICITY   = .0040511
INCLINATION    = 101.2575
RA_OF_ASC_NODE = 162.8345
ARG_OF_PERICENTER = 238.0361
MEAN_ANOMALY   = 121.6774

EPHEMERIS_TYPE = 0
CLASSIFICATION_TYPE = U
NORAD_CAT_ID   = 81617
ELEMENT_SET_NO = 999
REV_AT_EPOCH   = 55332
BSTAR          = .28619E-2
MEAN_MOTION_DOT = .44E-5
MEAN_MOTION_DDOT = 0

CCSDS_OMM_VERS = 2.0
CREATION_DATE  = 
ORIGINATOR     = 

OBJECT_NAME    = UNKNOWN
OBJECT_ID      = 
CENTER_NAME    = EARTH
REF_FRAME      = TEME
TIME_SYSTEM    = UTC
MEAN_ELEMENT_THEORY = SGP/SGP4

EPOCH          = 2025-12-14T04:52:50.135520
MEAN_MOTION    = 14.70975908
ECCENTRICITY   = .0071702
INCLINATION    = 66.9767
RA_OF_ASC_NODE = 162.8876
ARG_OF_PERICENTER = 235.2860
MEAN_ANOMALY   = 124.1494

EPHEMERIS_TYPE = 0
CLASSIFICATION_TYPE = U
NORAD_CAT_ID   = 81624
ELEMENT_SET_NO = 999
REV_AT_EPOCH   = 63992
BSTAR          = .1274E-2
MEAN_MOTION_DOT = .8045E-4
MEAN_MOTION_DDOT = 0

CCSDS_OMM_VERS = 2.0
CREATION_DATE  = 
ORIGINATOR     = 

OBJECT_NAME    = UNKNOWN
OBJECT_ID      = 
CENTER_NAME    = EARTH
REF_FRAME      = TEME
TIME_SYSTEM    = UTC
MEAN_ELEMENT_THEORY = SGP/SGP4

EPOCH          = 2025-12-13T15:41:39.608160
MEAN_MOTION    = 12.57225097
ECCENTRICITY   = .09759
INCLINATION    = 65.8246
RA_OF_ASC_NODE = 130.0387
ARG_OF_PERICENTER = 77.3458
MEAN_ANOMALY   = 293.4740

EPHEMERIS_TYPE = 0
CLASSIFICATION_TYPE = U
NORAD_CAT_ID   = 81640
ELEMENT_SET_NO = 999
REV_AT_EPOCH   = 51019
BSTAR          = .37211E-3
MEAN_MOTION_DOT = .343E-5
MEAN_MOTION_DDOT = 0

CCSDS_OMM_VERS = 2.0
CREATION_DATE  = 
ORIGINATOR     = 

OBJECT_NAME    = UNKNOWN
OBJECT_ID      = 
CENTER_NAME    = EARTH
REF_FRAME      = TEME
TIME_SYSTEM    = UTC
MEAN_ELEMENT_THEORY = SGP/SGP4

EPOCH          = 2025-12-14T04:25:25.319712
MEAN_MOTION    = 13.44378142
ECCENTRICITY   = .0367062
INCLINATION    = 102.1473
RA_OF_ASC_NODE = 236.9694
ARG_OF_PERICENTER = 356.3230
MEAN_ANOMALY   = 157.4260

EPHEMERIS_TYPE = 0
CLASSIFICATION_TYPE = U
NORAD_CAT_ID   = 81652
ELEMENT_SET_NO = 999
REV_AT_EPOCH   = 57884
BSTAR          = .13632E-2
MEAN_MOTION_DOT = .1128E-4
MEAN_MOTION_DDOT = 0

CCSDS_OMM_VERS = 2.0
CREATION_DATE  = 
ORIGINATOR     = 

OBJECT_NAME    = UNKNOWN
OBJECT_ID      = 
CENTER_NAME    = EARTH
REF_FRAME      = TEME
TIME_SYSTEM    = UTC
MEAN_ELEMENT_THEORY = SGP/SGP4

EPOCH          = 2025-12-14T09:16:03.423072
MEAN_MOTION    = 14.47984058
ECCENTRICITY   = .0017203
INCLINATION    = 74.0413
RA_OF_ASC_NODE = 33.4795
ARG_OF_PERICENTER = 321.5959
MEAN_ANOMALY   = 38.3975

EPHEMERIS_TYPE = 0
CLASSIFICATION_TYPE = U
NORAD_CAT_ID   = 81667
ELEMENT_SET_NO = 999
REV_AT_EPOCH   = 45688
BSTAR          = .72969E-3
MEAN_MOTION_DOT = .2688E-4
MEAN_MOTION_DDOT = 0

CCSDS_OMM_VERS = 2.0
CREATION_DATE  = 
ORIGINATOR     = 

OBJECT_NAME    = UNKNOWN
OBJECT_ID      = 
CENTER_NAME    = EARTH
REF_FRAME      = TEME
TIME_SYSTEM    = UTC
MEAN_ELEMENT_THEORY = SGP/SGP4

EPOCH          = 2025-12-12T08:11:20.092128
MEAN_MOTION    = 14.09914170
ECCENTRICITY   = .0032202
INCLINATION    = 66.8238
RA_OF_ASC_NODE = 5.2750
ARG_OF_PERICENTER = 231.7823
MEAN_ANOMALY   = 143.0236

EPHEMERIS_TYPE = 0
CLASSIFICATION_TYPE = U
NORAD_CAT_ID   = 81674
ELEMENT_SET_NO = 999
REV_AT_EPOCH   = 61366
BSTAR          = .84198E-3
MEAN_MOTION_DOT = .1412E-4
MEAN_MOTION_DDOT = 0

CCSDS_OMM_VERS = 2.0
CREATION_DATE  = 
ORIGINATOR     = 

OBJECT_NAME    = UNKNOWN
OBJECT_ID      = 
CENTER_NAME    = EARTH
REF_FRAME      = TEME
TIME_SYSTEM    = UTC
MEAN_ELEMENT_THEORY = SGP/SGP4

EPOCH          = 2025-12-14T02:53:20.768928
MEAN_MOTION    = 14.57404727
ECCENTRICITY   = .0022857
INCLINATION    = 81.2165
RA_OF_ASC_NODE = 293.9187
ARG_OF_PERICENTER = 297.2049
MEAN_ANOMALY   = 62.6818

EPHEMERIS_TYPE = 0
CLASSIFICATION_TYPE = U
NORAD_CAT_ID   = 81683
ELEMENT_SET_NO = 999
REV_AT_EPOCH   = 63606
BSTAR          = .10092E-2
MEAN_MOTION_DOT = .4606E-4
MEAN_MOTION_DDOT = 0

CCSDS_OMM_VERS = 2.0
CREATION_DATE  = 
ORIGINATOR     = 

OBJECT_NAME    = UNKNOWN
OBJECT_ID      = 
CENTER_NAME    = EARTH
REF_FRAME      = TEME
TIME_SYSTEM    = UTC
MEAN_ELEMENT_THEORY = SGP/SGP4

EPOCH          = 2025-12-13T10:30:20.653056
MEAN_MOTION    = 12.25915160
ECCENTRICITY   = .0370928
INCLINATION    = 101.0876
RA_OF_ASC_NODE = 48.7917
ARG_OF_PERICENTER = 83.9430
MEAN_ANOMALY   = 280.3758

EPHEMERIS_TYPE = 0
CLASSIFICATION_TYPE = U
NORAD_CAT_ID   = 81693
ELEMENT_SET_NO = 999
REV_AT_EPOCH   = 96785
BSTAR          = .84923E-3
MEAN_MOTION_DOT = .83E-6
MEAN_MOTION_DDOT = 0

